[{"OBJECT_NAME":"GEOSCAN 5 (RS92S5)","OBJECT_ID":"2025-155R","EPOCH":"2026-03-09T22:01:07.273920","MEAN_MOTION":15.30265233,"ECCENTRICITY":0.00070849,"INCLINATION":97.4462,"RA_OF_ASC_NODE":37.7456,"ARG_OF_PERICENTER":154.5846,"MEAN_ANOMALY":205.5745,"EPHEMERIS_TYPE":0,"CLASSIFICATION_TYPE":"U","NORAD_CAT_ID":64891,"ELEMENT_SET_NO":999,"REV_AT_EPOCH":6562,"BSTAR":0.00068639307,"MEAN_MOTION_DOT":0.00020065,"MEAN_MOTION_DDOT":0},{"OBJECT_NAME":"STARLINK-35247","OBJECT_ID":"2025-210A","EPOCH":"2026-03-09T21:55:44.383296","MEAN_MOTION":15.30227046,"ECCENTRICITY":0.00013355,"INCLINATION":53.1612,"RA_OF_ASC_NODE":306.1647,"ARG_OF_PERICENTER":93.0229,"MEAN_ANOMALY":267.0924,"EPHEMERIS_TYPE":0,"CLASSIFICATION_TYPE":"U","NORAD_CAT_ID":65622,"ELEMENT_SET_NO":999,"REV_AT_EPOCH":2776,"BSTAR":0.00075859037,"MEAN_MOTION_DOT":0.00022194,"MEAN_MOTION_DDOT":0}]
